STARLINK-4083           
1 52832U 22062C   24187.51520753  .00002221  00000+0  15759-3 0  9998
2 52832  53.2185 262.2838 0001658 108.8221 251.2951 15.08845731113360
STARLINK-4086           
1 52833U 22062D   24187.51153106  .00000728  00000+0  63853-4 0  9992
2 52833  53.2180 262.3012 0001438 105.7079 254.4072 15.08839621113364
STARLINK-4108           
1 52834U 22062E   24187.50415873  .00001368  00000+0  10403-3 0  9997
2 52834  53.2174 262.3328 0001215  81.2572 278.8558 15.08846738113363
STARLINK-4080           
1 52835U 22062F   24187.50047923  .00000855  00000+0  71765-4 0  9994
2 52835  53.2164 262.3456 0001352  94.4948 265.6199 15.08844878113368
STARLINK-4043           
1 52836U 22062G   24187.52724449  .00002562  00000+0  17897-3 0  9994
2 52836  53.2164 262.5443 0001484  74.5471 285.5684 15.08842588113369
STARLINK-4036           
1 52837U 22062H   24187.48943621  .00001357  00000+0  10329-3 0  9999
2 52837  53.2169 262.3981 0001249  95.3434 264.7700 15.08851664113362
STARLINK-4092           
1 52838U 22062J   24187.49311857  .00001819  00000+0  13228-3 0  9995
2 52838  53.2148 262.3708 0001204  84.7686 275.3443 15.08849483113367
STARLINK-4048           
1 52839U 22062K   24187.48208034  .00003110  00000+0  21336-3 0  9992
2 52839  53.2160 262.4291 0001333  91.8559 268.2586 15.08851834113363
STARLINK-4049           
1 52840U 22062L   24187.49681478  .00002445  00000+0  17159-3 0  9990
2 52840  53.2163 262.4807 0001132 103.6873 256.4245 15.08849928113361
STARLINK-4065           
1 52841U 22062M   24187.47104726  .00005223  00000+0  34594-3 0  9994
2 52841  53.2146 262.4765 0001233 102.7523 257.3607 15.08847951113366
STARLINK-4046           
1 52842U 22062N   24187.48575308  .00000300  00000+0  36955-4 0  9999
2 52842  53.2177 262.3359 0001460  96.7426 263.3733 15.08844800113362
STARLINK-4188           
1 52843U 22062P   24187.52992428  .00001802  00000+0  13125-3 0  9992
2 52843  53.2166 262.2121 0001445  84.8133 275.3024 15.08844800113370
STARLINK-4208           
1 52844U 22062Q   24187.47839774  .00000648  00000+0  58768-4 0  9991
2 52844  53.2157 262.4473 0001088  92.8336 267.2781 15.08850664113364
STARLINK-4168           
1 52845U 22062R   24187.46737089  .00002118  00000+0  15112-3 0  9996
2 52845  53.2146 262.5602 0001239  86.1155 273.9978 15.08844660113362
STARLINK-4212           
1 52846U 22062S   24187.46831890  .00000692  00000+0  61572-4 0  9999
2 52846  53.2155 262.5025 0001079  91.5870 268.5245 15.08846181113365
STARLINK-4206           
1 52847U 22062T   24187.45633115  .00000497  00000+0  49311-4 0  9999
2 52847  53.2174 262.5447 0001391  88.8031 271.3121 15.08839162113366
STARLINK-4202           
1 52848U 22062U   24187.47472717  .00002620  00000+0  18260-3 0  9999
2 52848  53.2158 262.4603 0001327  99.5373 260.5769 15.08845081113364
STARLINK-4197           
1 52849U 22062V   24187.44988036  .00000440  00000+0  45752-4 0  9998
2 52849  53.2161 252.5695 0001309  95.7308 264.3833 15.08848868113490
STARLINK-4187           
1 52850U 22062W   24187.49412711  .00004253  00000+0  28507-3 0  9991
2 52850  53.2171 262.7310 0001245  93.5920 266.5215 15.08848206113365
STARLINK-3809           
1 52851U 22062X   24187.44620064  .00000366  00000+0  41050-4 0  9999
2 52851  53.2149 252.5870 0001213  91.5098 268.6033 15.08847186113499
STARLINK-4184           
1 52852U 22062Y   24187.45356912  .00004922  00000+0  32701-3 0  9993
2 52852  53.2165 252.5559 0001272  98.6961 261.4176 15.08854161113494
STARLINK-4189           
1 52853U 22062Z   24187.50235691  .00002429  00000+0  17064-3 0  9995
2 52853  53.2158 252.3077 0001357  78.6149 281.4995 15.08846459113504
STARLINK-4204           
1 52854U 22062AA  24187.50875968  .00002501  00000+0  17513-3 0  9993
2 52854  53.2160 252.3070 0001196 100.7940 259.3186 15.08848786113509
STARLINK-4209           
1 52855U 22062AB  24187.49773019  .00001275  00000+0  98188-4 0  9991
2 52855  53.2176 252.3583 0001498  90.1591 269.9573 15.08840547113509
STARLINK-4201           
1 52856U 22062AC  24187.50604439  .00001192  00000+0  92985-4 0  9990
2 52856  53.2165 252.3674 0001330  87.5371 272.5773 15.08845965113501
STARLINK-4199           
1 52857U 22062AD  24187.42412386 -.00000175  00000+0  71238-5 0  9990
2 52857  53.2177 252.6901 0001482  97.2281 262.8880 15.08842591113498
STARLINK-4198           
1 52858U 22062AE  24187.50140764  .00001452  00000+0  10928-3 0  9993
2 52858  53.2183 252.3676 0001606  93.9964 266.1212 15.08843154113505
STARLINK-4196           
1 52859U 22062AF  24187.48668854  .00001323  00000+0  10120-3 0  9997
2 52859  53.2173 252.4117 0001435 102.3662 257.7491 15.08841387113507
STARLINK-4191           
1 52860U 22062AG  24187.49404378  .00000746  00000+0  64920-4 0  9995
2 52860  53.2169 252.3757 0001280  81.4950 278.6187 15.08843705113508
STARLINK-4112           
1 52861U 22062AH  24187.46924005  .00002210  00000+0  15689-3 0  9992
2 52861  53.2154 252.4979 0001087  92.8093 267.3024 15.08847344113507
STARLINK-4010           
1 52862U 22062AJ  24187.48300681  .00001175  00000+0  91919-4 0  9993
2 52862  53.2165 252.4263 0001227  91.9887 268.1245 15.08843347113506
STARLINK-4270           
1 52863U 22062AK  24187.47564702  .00001623  00000+0  12001-3 0  9991
2 52863  53.2155 252.4573 0001302  89.7369 270.3772 15.08843805113503
STARLINK-4267           
1 52864U 22062AL  24187.47932035  .00002395  00000+0  16845-3 0  9997
2 52864  53.2156 252.4441 0001269  88.8713 271.2425 15.08850174113506
STARLINK-4274           
1 52865U 22062AM  24187.46460099  .00001898  00000+0  13731-3 0  9991
2 52865  53.2153 252.5112 0001259  77.0222 283.0910 15.08846044113505
STARLINK-4272           
1 52866U 22062AN  24187.47195926  .00000838  00000+0  70728-4 0  9990
2 52866  53.2164 252.4761 0001205  92.2949 267.8181 15.08846951113500
STARLINK-4126           
1 52867U 22062AP  24187.45724566  .00000820  00000+0  69584-4 0  9996
2 52867  53.2155 252.5401 0001292  92.0844 268.0296 15.08843949113505
STARLINK-4261           
1 52868U 22062AQ  24187.46828823  .00002208  00000+0  15674-3 0  9991
2 52868  53.2161 252.5223 0001283  90.4291 269.6848 15.08845492113508
STARLINK-4266           
1 52869U 22062AR  24187.45083249 -.00001248  00000+0 -60396-4 0  9993
2 52869  53.2158 242.5714 0001158  90.7792 269.3333 15.08818693113632
STARLINK-4195           
1 52870U 22062AS  24187.46091777  .00000252  00000+0  33931-4 0  9998
2 52870  53.2169 252.5231 0001457  96.3658 263.7500 15.08849287113509
STARLINK-4207           
1 52871U 22062AT  24187.43976299  .00001989  00000+0  14300-3 0  9993
2 52871  53.2158 242.6178 0001337  93.2870 266.8275 15.08848216113635
STARLINK-4213           
1 52872U 22062AU  24187.44438899  .00001192  00000+0  92949-4 0  9996
2 52872  53.2162 242.5697 0001301  91.8071 268.3070 15.08850821113639
STARLINK-4211           
1 52873U 22062AV  24187.43240453  .00000390  00000+0  42559-4 0  9994
2 52873  53.2154 242.6523 0001249  85.0172 275.0963 15.08844700113633
STARLINK-4210           
1 52874U 22062AW  24187.44344586  .00000572  00000+0  54042-4 0  9990
2 52874  53.2162 242.6011 0001210  88.9367 271.1763 15.08842187113633
STARLINK-4193           
1 52875U 22062AX  24187.42872698  .00000785  00000+0  67383-4 0  9997
2 52875  53.2169 242.6674 0001285 107.6197 252.4936 15.08841885113636
STARLINK-4200           
1 52876U 22062AY  24187.43608419  .00001801  00000+0  13121-3 0  9997
2 52876  53.2155 242.6369 0001076  85.8035 274.3080 15.08845761113639
STARLINK-4214           
1 52877U 22062AZ  24187.46921754  .00006307  00000+0  41388-3 0  9993
2 52877  53.2131 242.4944 0001035 104.3062 255.8045 15.08849529113645
STARLINK-4171           
1 52878U 22062BA  24187.42504552  .00001839  00000+0  13358-3 0  9994
2 52878  53.2162 242.6821 0001377  98.2157 261.8992 15.08847079113636
STARLINK-4139           
1 52879U 22062BB  24187.45816002  .00001936  00000+0  13965-3 0  9996
2 52879  53.2153 242.5378 0001252  92.3998 267.7137 15.08847363113646
STARLINK-4186           
1 52880U 22062BC  24187.46184098  .00002492  00000+0  17459-3 0  9992
2 52880  53.2162 242.5221 0001272  92.2409 267.8728 15.08848098113646
STARLINK-4192           
1 52881U 22062BD  24187.43708576  .00002247  00000+0  15921-3 0  9993
2 52881  53.2163 243.0238 0001402  98.7372 261.3779 15.08846160113639
STARLINK-4181           
1 52882U 22062BE  24187.48018804  .00000970  00000+0  79008-4 0  9995
2 52882  53.2161 242.0152 0001322  80.0472 280.0669 15.08848483113656
STARLINK-4260           
1 52986U 22076A   24187.58696548  .00001343  00000+0  10242-3 0  9992
2 52986  53.2179 321.9584 0000967  93.0958 267.0145 15.08843806110434
STARLINK-4259           
1 52987U 22076B   24187.56028736  .00001339  00000+0  10221-3 0  9991
2 52987  53.2170 332.0777 0001231  92.2129 267.9004 15.08842156110293
STARLINK-4291           
1 52988U 22076C   24187.58328188  .00001213  00000+0  94280-4 0  9997
2 52988  53.2169 321.9748 0001045  95.0151 265.0961 15.08845640110434
STARLINK-4293           
1 52989U 22076D   24187.55660796  .00001719  00000+0  12606-3 0  9991
2 52989  53.2168 332.0937 0001478 116.1913 243.9231 15.08841524110294
STARLINK-4286           
1 52990U 22076E   24187.55292523  .00001286  00000+0  98829-4 0  9993
2 52990  53.2176 332.1143 0001108  99.0090 261.1028 15.08844086110292
STARLINK-4285           
1 52991U 22076F   24187.61548668  .00007222  00000+0  47127-3 0  9995
2 52991  53.2172 331.8312 0001193  98.3482 261.7646 15.08849694110308
STARLINK-4269           
1 52992U 22076G   24187.61276215  .00001961  00000+0  14120-3 0  9993
2 52992  53.2163 331.8543 0000995  94.0593 266.0512 15.08849215110309
STARLINK-4264           
1 52993U 22076H   24187.57960537  .00000416  00000+0  44248-4 0  9995
2 52993  53.2188 321.9904 0001375  91.6586 268.4564 15.08844985110432
